PROBA-1                 
1 26958U 01049B   14094.51915041  .00003452  00000-0  32351-3 0   226
2 26958  97.4469  98.5957 0075587 289.9864  69.3201 14.92507890676861
BIRD 2                  
1 26959U 01049C   14094.50996652  .00009016  00000-0  38939-3 0  8119
2 26959  97.8235 331.8340 0013173 166.8725 310.9271 15.22668999687527
CUTE-1 (CO-55)          
1 27844U 03031E   14094.51746681  .00000515  00000-0  25558-3 0  8929
2 27844  98.6996 104.3496 0010888 125.8119 357.5644 14.21452339558111
CUBESAT XI-IV (CO-57)   
1 27848U 03031J   14094.51209308  .00000432  00000-0  21880-3 0  8341
2 27848  98.7089 104.0150 0010760 131.7735  21.5974 14.21146657558030
GENESIS 1               
1 29252U 06029A   14093.62355667  .00005955  00000-0  37206-3 0  1654
2 29252  64.5080 134.5516 0028692 326.0199 175.6034 15.10065936424571
FALCONSAT-3             
1 30776U 07006E   14091.50500698  .00018079  00000-0  94747-3 0  8352
2 30776  35.4290 228.1268 0001214 327.9234  94.5155 15.14985030389099
GENESIS 2               
1 31789U 07028A   14094.12092345  .00006100  00000-0  38707-3 0  8960
2 31789  64.5079 167.0800 0016955 207.1321 152.8913 15.09680769371792
APRIZESAT 4             
1 35684U 09041D   14094.44831630  .00001183  00000-0  16988-3 0  4440
2 35684  98.0598  15.6424 0047141 265.6374 204.2596 14.77688773252284
APRIZESAT 3             
1 35686U 09041F   14093.83898787  .00002161  00000-0  24785-3 0  4766
2 35686  98.1415  38.6103 0075364 217.0533 199.9489 14.85003359253349
PROBA-2                 
1 36037U 09059B   14094.53150356  .00000315  00000-0  87943-4 0  3761
2 36037  98.2891 288.2084 0012546 340.2282  97.5666 14.52567568234309
APRIZESAT 5             
1 37792U 11044E   14094.28932780  .00002015  00000-0  30879-3 0  8206
2 37792  98.2187 197.1686 0060208 177.2600 182.8952 14.73608773141458
APRIZESAT 6             
1 37793U 11044F   14094.29323459  .00001870  00000-0  30884-3 0  8737
2 37793  98.2072 192.3617 0047744 187.0907 172.9591 14.70882031141190
TET-1                   
1 38710U 12039D   14093.90954046  .00014006  00000-0  53104-3 0  6543
2 38710  97.4755  10.4248 0004725  79.6307 280.5462 15.26978835 94438
STSAT-2C                
1 39068U 13003A   14094.45041571  .00059967 -37277-6  11540-2 0  4412
2 39068  80.2606  82.1561 0727721  57.3048 309.6194 14.23079354 60394
CUSAT 1                 
1 39266U 13055B   14093.59703816  .00019747  00000-0  65394-3 0  1918
2 39266  80.9888 129.8673 0766757 358.6893   1.2240 14.03679359 26010
STPSAT-3                
1 39380U 13064A   14094.43624732  .00008482  00000-0  36452-3 0  1285
2 39380  40.5159 182.2117 0002218 183.4537 176.6214 15.22670863 20633
APRIZESAT 7             
1 39416U 13066A   14093.75632283  .00002124  00000-0  26846-3 0  1318
2 39416  97.7856 167.9209 0043214 126.6683 233.8495 14.82241458 19741
UNISAT-5                
1 39421U 13066F   14094.50009722  .00003626  00000-0  43073-3 0  4114
2 39421  97.7848 169.1187 0034087 127.7545 232.6753 14.84634454 19898
APRIZESAT 8             
1 39425U 13066K   14093.78083057  .00001900  00000-0  25364-3 0  1236
2 39425  97.7815 167.4010 0053961 124.6274 236.0040 14.79692584 19731
